{
  "type": "FeatureCollection",
  "features": [
    {
      "type": "Feature",
      "properties": {
        "segment_id": "REAL_RAIL_SEG_01",
        "name": "East Coast main railway line (Bhubaneswar section)",
        "route": "railway",
        "railway": "rail",
        "operator": "Indian Railways",
        "ref": "EC",
        "source": "OpenStreetMap",
        "osm_relation_id": 5699337,
        "retrieval_date": "2026-09-10",
        "license": "ODbL",
        "attribution": "\u00a9 OpenStreetMap contributors"
      },
      "geometry": {
        "type": "LineString",
        "coordinates": [
          [
            85.8504012,
            20.277631
          ],
          [
            85.8495648,
            20.2742999
          ],
          [
            85.8494514,
            20.2739378
          ],
          [
            85.8493227,
            20.2736101
          ],
          [
            85.8491598,
            20.2733165
          ],
          [
            85.8458125,
            20.2691228
          ],
          [
            85.8461582,
            20.2694865
          ],
          [
            85.8466035,
            20.2700209
          ],
          [
            85.8478363,
            20.2715989
          ],
          [
            85.8481929,
            20.2720553
          ],
          [
            85.8485885,
            20.2725714
          ],
          [
            85.8488657,
            20.272933
          ],
          [
            85.8491598,
            20.2733165
          ],
          [
            85.8499212,
            20.2743097
          ],
          [
            85.8501605,
            20.2746331
          ],
          [
            85.8503856,
            20.2750283
          ],
          [
            85.8510414,
            20.2774847
          ],
          [
            85.8481929,
            20.2720553
          ],
          [
            85.8484951,
            20.27256
          ],
          [
            85.8489118,
            20.2732987
          ],
          [
            85.8490497,
            20.2736436
          ],
          [
            85.8492029,
            20.2741552
          ],
          [
            85.8500853,
            20.2777737
          ],
          [
            85.8467502,
            20.2703264
          ],
          [
            85.8464591,
            20.2699509
          ],
          [
            85.8462829,
            20.2697533
          ],
          [
            85.8453331,
            20.2687797
          ],
          [
            85.8454556,
            20.2689827
          ],
          [
            85.8464706,
            20.2700282
          ],
          [
            85.8467502,
            20.2703264
          ],
          [
            85.8475085,
            20.2712641
          ],
          [
            85.8478363,
            20.2715989
          ],
          [
            85.8488657,
            20.272933
          ],
          [
            85.8490378,
            20.2732394
          ],
          [
            85.8492339,
            20.2736073
          ],
          [
            85.8493105,
            20.2738315
          ],
          [
            85.8502695,
            20.2776167
          ],
          [
            85.8423451,
            20.2649924
          ],
          [
            85.8419591,
            20.264498
          ],
          [
            85.8416251,
            20.2640266
          ],
          [
            85.8413279,
            20.2635725
          ],
          [
            85.8410876,
            20.2631932
          ],
          [
            85.8493227,
            20.2736101
          ],
          [
            85.8495096,
            20.2739292
          ],
          [
            85.8496261,
            20.2742223
          ],
          [
            85.849669,
            20.274435
          ],
          [
            85.8497486,
            20.2748374
          ],
          [
            85.8504411,
            20.2776195
          ],
          [
            85.8478363,
            20.2715989
          ],
          [
            85.8482264,
            20.2720284
          ],
          [
            85.850735,
            20.2753292
          ],
          [
            85.8510606,
            20.2758052
          ],
          [
            85.8524298,
            20.2775745
          ],
          [
            85.8504932,
            20.2776138
          ],
          [
            85.8497976,
            20.274823
          ],
          [
            85.8497701,
            20.2746506
          ],
          [
            85.8497333,
            20.2744178
          ],
          [
            85.849672,
            20.274185
          ],
          [
            85.8495709,
            20.2739292
          ],
          [
            85.8493227,
            20.2736101
          ],
          [
            85.8478363,
            20.2715989
          ],
          [
            85.8480049,
            20.2718558
          ],
          [
            85.8481642,
            20.2721404
          ],
          [
            85.8482377,
            20.2723847
          ],
          [
            85.8482622,
            20.2728618
          ],
          [
            85.8482837,
            20.2733303
          ],
          [
            85.8483205,
            20.2736234
          ],
          [
            85.8484583,
            20.2742931
          ],
          [
            85.8502388,
            20.2777374
          ],
          [
            85.8492431,
            20.2738286
          ],
          [
            85.8491573,
            20.2736159
          ],
          [
            85.8490071,
            20.2732509
          ],
          [
            85.8489471,
            20.273116
          ],
          [
            85.8488657,
            20.272933
          ],
          [
            85.8485885,
            20.2725714
          ],
          [
            85.8488251,
            20.2729796
          ],
          [
            85.8489673,
            20.273313
          ],
          [
            85.8490874,
            20.2736487
          ],
          [
            85.8492443,
            20.274166
          ],
          [
            85.8501341,
            20.2777713
          ],
          [
            85.8510185,
            20.2995913
          ],
          [
            85.8516519,
            20.297784
          ],
          [
            85.8521906,
            20.2961653
          ],
          [
            85.8523727,
            20.2955996
          ],
          [
            85.8526951,
            20.2946924
          ],
          [
            85.8530403,
            20.2936891
          ],
          [
            85.8536661,
            20.2918995
          ],
          [
            85.8542844,
            20.290085
          ],
          [
            85.8544703,
            20.2894055
          ],
          [
            85.8545879,
            20.2889643
          ],
          [
            85.8546751,
            20.2884769
          ],
          [
            85.8547624,
            20.2880641
          ],
          [
            85.8548269,
            20.2875162
          ],
          [
            85.8548989,
            20.2867086
          ],
          [
            85.8549369,
            20.2862461
          ],
          [
            85.854952,
            20.2856021
          ],
          [
            85.854952,
            20.2851004
          ],
          [
            85.8549217,
            20.284556
          ],
          [
            85.8548701,
            20.2841254
          ],
          [
            85.8547744,
            20.2833116
          ],
          [
            85.8546979,
            20.2828449
          ],
          [
            85.8545416,
            20.2821837
          ],
          [
            85.8543885,
            20.2815733
          ],
          [
            85.8541684,
            20.2808672
          ],
          [
            85.8539228,
            20.2801731
          ],
          [
            85.8536772,
            20.2796016
          ],
          [
            85.8532657,
            20.2787549
          ],
          [
            85.8528128,
            20.277977
          ],
          [
            85.8525225,
            20.2775114
          ],
          [
            85.8509174,
            20.2753678
          ],
          [
            85.8482748,
            20.2719799
          ],
          [
            85.8473364,
            20.2708303
          ],
          [
            85.8464938,
            20.2697524
          ],
          [
            85.8462533,
            20.2694431
          ],
          [
            85.8453833,
            20.2683931
          ],
          [
            85.8455301,
            20.2686251
          ],
          [
            85.8456869,
            20.2689033
          ],
          [
            85.8458119,
            20.2690664
          ],
          [
            85.8455765,
            20.2685035
          ],
          [
            85.8454446,
            20.2683299
          ],
          [
            85.8449325,
            20.2676722
          ],
          [
            85.8440199,
            20.2664989
          ],
          [
            85.8433084,
            20.2655787
          ],
          [
            85.8413971,
            20.2632538
          ],
          [
            85.8411634,
            20.263008
          ],
          [
            85.8409473,
            20.2627841
          ],
          [
            85.8407668,
            20.2625777
          ],
          [
            85.8398423,
            20.2611577
          ],
          [
            85.8401373,
            20.261686
          ],
          [
            85.8052547,
            20.2316052
          ],
          [
            85.8080437,
            20.2325523
          ],
          [
            85.8100573,
            20.2332555
          ],
          [
            85.8120136,
            20.2339075
          ],
          [
            85.8135203,
            20.2344127
          ],
          [
            85.8144129,
            20.2347185
          ],
          [
            85.8157895,
            20.235185
          ],
          [
            85.8165298,
            20.2354301
          ],
          [
            85.8170194,
            20.235616
          ],
          [
            85.8173652,
            20.2357652
          ],
          [
            85.8177704,
            20.2359402
          ],
          [
            85.8186164,
            20.236356
          ],
          [
            85.8192091,
            20.2366718
          ],
          [
            85.8198485,
            20.2370572
          ],
          [
            85.8205423,
            20.237532
          ],
          [
            85.821451,
            20.2382225
          ],
          [
            85.821957,
            20.2386454
          ],
          [
            85.8224523,
            20.2390831
          ],
          [
            85.8228877,
            20.2395252
          ],
          [
            85.823297,
            20.23999
          ],
          [
            85.8238747,
            20.2406575
          ],
          [
            85.8246395,
            20.2416408
          ],
          [
            85.8258172,
            20.2431513
          ],
          [
            85.8266944,
            20.2442799
          ],
          [
            85.8271633,
            20.2448854
          ],
          [
            85.828392,
            20.246475
          ],
          [
            85.8297114,
            20.2482034
          ],
          [
            85.8303151,
            20.2491053
          ],
          [
            85.8309244,
            20.2499603
          ],
          [
            85.831568,
            20.2507616
          ],
          [
            85.8327818,
            20.2521746
          ],
          [
            85.8337515,
            20.2533525
          ],
          [
            85.8340062,
            20.253705
          ],
          [
            85.834231,
            20.2539787
          ],
          [
            85.8356182,
            20.255745
          ],
          [
            85.8369625,
            20.2574781
          ],
          [
            85.8377466,
            20.2584604
          ],
          [
            85.8390191,
            20.2601207
          ],
          [
            85.8461694,
            20.2694481
          ],
          [
            85.8464582,
            20.2697855
          ],
          [
            85.8473072,
            20.2708562
          ],
          [
            85.8482436,
            20.2719951
          ],
          [
            85.8509,
            20.2754
          ],
          [
            85.8524766,
            20.2775381
          ],
          [
            85.85318,
            20.2787
          ],
          [
            85.8535614,
            20.2794699
          ],
          [
            85.8538,
            20.28001
          ],
          [
            85.854171,
            20.2810261
          ],
          [
            85.8543794,
            20.2817446
          ],
          [
            85.854589,
            20.2827308
          ],
          [
            85.8547456,
            20.2835053
          ],
          [
            85.8548186,
            20.2841378
          ],
          [
            85.854903,
            20.2854026
          ],
          [
            85.8548847,
            20.2861032
          ],
          [
            85.854853,
            20.2867384
          ],
          [
            85.8547954,
            20.2873697
          ],
          [
            85.8547396,
            20.2878318
          ],
          [
            85.8546648,
            20.2883116
          ],
          [
            85.8545304,
            20.2889654
          ],
          [
            85.8543147,
            20.2897677
          ],
          [
            85.85395,
            20.2909434
          ],
          [
            85.8531895,
            20.2931031
          ],
          [
            85.8524252,
            20.295302
          ],
          [
            85.8524,
            20.29537
          ],
          [
            85.8459986,
            20.2691155
          ],
          [
            85.8449238,
            20.2677348
          ],
          [
            85.8439852,
            20.2665261
          ],
          [
            85.8407506,
            20.2623394
          ],
          [
            85.8407148,
            20.2626
          ],
          [
            85.8408551,
            20.2627888
          ],
          [
            85.841004,
            20.2629985
          ],
          [
            85.8437586,
            20.2665668
          ],
          [
            85.8450851,
            20.2682761
          ],
          [
            85.8451005,
            20.2682959
          ],
          [
            85.8452629,
            20.2685149
          ],
          [
            85.8456247,
            20.2689445
          ],
          [
            85.8405204,
            20.2622426
          ],
          [
            85.8407148,
            20.2626
          ],
          [
            85.8409423,
            20.2629888
          ],
          [
            85.8410876,
            20.2631932
          ],
          [
            85.8430665,
            20.2657392
          ],
          [
            85.8455765,
            20.2685035
          ],
          [
            85.8451102,
            20.2677524
          ],
          [
            85.8390853,
            20.2601012
          ],
          [
            85.8377891,
            20.2584312
          ],
          [
            85.8370049,
            20.2574488
          ],
          [
            85.8356607,
            20.2557158
          ],
          [
            85.8342736,
            20.2539496
          ],
          [
            85.8337938,
            20.2533229
          ],
          [
            85.8328394,
            20.2521462
          ],
          [
            85.8316933,
            20.250681
          ],
          [
            85.8309977,
            20.2497876
          ],
          [
            85.8303431,
            20.2489343
          ],
          [
            85.8297552,
            20.2481758
          ],
          [
            85.8284347,
            20.2464461
          ],
          [
            85.827206,
            20.2448564
          ],
          [
            85.826737,
            20.244251
          ],
          [
            85.8258597,
            20.2431222
          ],
          [
            85.8246821,
            20.2416116
          ],
          [
            85.8239164,
            20.2406273
          ],
          [
            85.8233376,
            20.2399585
          ],
          [
            85.8229274,
            20.2394926
          ],
          [
            85.8224898,
            20.2390483
          ],
          [
            85.8219926,
            20.2386089
          ],
          [
            85.8214851,
            20.2381849
          ],
          [
            85.8205744,
            20.2374928
          ],
          [
            85.8198782,
            20.2370164
          ],
          [
            85.8192363,
            20.2366295
          ],
          [
            85.8186416,
            20.2363126
          ],
          [
            85.8177936,
            20.2358958
          ],
          [
            85.8173872,
            20.2357203
          ],
          [
            85.8170403,
            20.2355706
          ],
          [
            85.8165484,
            20.2353839
          ],
          [
            85.8158072,
            20.2351385
          ],
          [
            85.8144308,
            20.2346721
          ],
          [
            85.8135387,
            20.2343664
          ],
          [
            85.8120312,
            20.2338609
          ],
          [
            85.8100753,
            20.2332091
          ],
          [
            85.8080619,
            20.2325059
          ],
          [
            85.8052726,
            20.2315681
          ],
          [
            85.8053141,
            20.2314968
          ],
          [
            85.806437,
            20.2318919
          ],
          [
            85.8097362,
            20.2330194
          ],
          [
            85.812016,
            20.2337996
          ],
          [
            85.8128529,
            20.2340462
          ],
          [
            85.8139955,
            20.2343533
          ],
          [
            85.8146906,
            20.2345934
          ],
          [
            85.8160561,
            20.2350739
          ],
          [
            85.8176,
            20.2357038
          ],
          [
            85.8183397,
            20.2360704
          ],
          [
            85.8191476,
            20.236494
          ],
          [
            85.8199138,
            20.2369673
          ],
          [
            85.8205966,
            20.2374371
          ],
          [
            85.8212453,
            20.2379105
          ],
          [
            85.8217118,
            20.2382984
          ],
          [
            85.822277,
            20.2387682
          ],
          [
            85.8227701,
            20.2392451
          ],
          [
            85.8232291,
            20.2397398
          ],
          [
            85.8237602,
            20.240327
          ],
          [
            85.8252623,
            20.2422524
          ],
          [
            85.8262751,
            20.2435657
          ],
          [
            85.8275117,
            20.2451458
          ],
          [
            85.828771,
            20.2467687
          ],
          [
            85.8299241,
            20.2482349
          ],
          [
            85.8306638,
            20.2491744
          ],
          [
            85.8315249,
            20.2502883
          ],
          [
            85.8323594,
            20.2513559
          ],
          [
            85.8331673,
            20.2524663
          ],
          [
            85.8338843,
            20.2533346
          ],
          [
            85.8341536,
            20.2536762
          ],
          [
            85.8353295,
            20.2551886
          ],
          [
            85.8371123,
            20.2574875
          ],
          [
            85.8388572,
            20.2597081
          ],
          [
            85.8398927,
            20.2610781
          ],
          [
            85.84031,
            20.2616297
          ],
          [
            85.8407158,
            20.2620602
          ],
          [
            85.8409358,
            20.2623022
          ],
          [
            85.8434279,
            20.2655048
          ],
          [
            85.8445087,
            20.2668937
          ],
          [
            85.8448789,
            20.2674024
          ],
          [
            85.8450684,
            20.2676863
          ],
          [
            85.8433084,
            20.2655787
          ],
          [
            85.84058,
            20.2620502
          ],
          [
            85.8404449,
            20.2618922
          ],
          [
            85.8402094,
            20.2616468
          ],
          [
            85.8451102,
            20.2677524
          ],
          [
            85.8457019,
            20.2685377
          ],
          [
            85.8450684,
            20.2676863
          ],
          [
            85.8451102,
            20.2677524
          ],
          [
            85.8459986,
            20.2691155
          ],
          [
            85.8458399,
            20.2688501
          ],
          [
            85.8455765,
            20.2685035
          ],
          [
            85.8462533,
            20.2694431
          ],
          [
            85.8459986,
            20.2691155
          ],
          [
            85.8462533,
            20.2694431
          ],
          [
            85.8460089,
            20.2691824
          ],
          [
            85.8457585,
            20.2688784
          ],
          [
            85.8453833,
            20.2683931
          ],
          [
            85.844915,
            20.2677853
          ],
          [
            85.8439525,
            20.2665449
          ],
          [
            85.8432373,
            20.2656238
          ],
          [
            85.8413971,
            20.2632538
          ],
          [
            85.8408175,
            20.2625019
          ],
          [
            85.840712,
            20.2623585
          ],
          [
            85.8405359,
            20.2620865
          ],
          [
            85.8404362,
            20.2619371
          ],
          [
            85.8402094,
            20.2616468
          ],
          [
            85.8398423,
            20.2611577
          ],
          [
            85.8393154,
            20.2604404
          ],
          [
            85.8390853,
            20.2601012
          ],
          [
            85.8390191,
            20.2601207
          ],
          [
            85.8397578,
            20.2611513
          ],
          [
            85.8399376,
            20.2614028
          ],
          [
            85.8401373,
            20.261686
          ],
          [
            85.8405204,
            20.2622426
          ],
          [
            85.8406696,
            20.2624413
          ],
          [
            85.8407668,
            20.2625777
          ],
          [
            85.841102,
            20.2630497
          ],
          [
            85.8431363,
            20.2656934
          ],
          [
            85.8438527,
            20.2666245
          ],
          [
            85.8451124,
            20.2682566
          ],
          [
            85.8452698,
            20.2684605
          ],
          [
            85.8455647,
            20.2688018
          ],
          [
            85.8458119,
            20.2690664
          ],
          [
            85.8458634,
            20.2691215
          ],
          [
            85.8461694,
            20.2694481
          ],
          [
            85.8456247,
            20.2689445
          ],
          [
            85.8458125,
            20.2691228
          ],
          [
            85.8461694,
            20.2694481
          ],
          [
            85.8430665,
            20.2657392
          ],
          [
            85.8437933,
            20.2666743
          ],
          [
            85.8450514,
            20.2683001
          ],
          [
            85.8452284,
            20.2685288
          ],
          [
            85.8456247,
            20.2689445
          ],
          [
            85.8450684,
            20.2676863
          ],
          [
            85.8448987,
            20.2673953
          ],
          [
            85.8447907,
            20.2672255
          ],
          [
            85.8446391,
            20.267026
          ],
          [
            85.8445267,
            20.2668704
          ],
          [
            85.8434587,
            20.265483
          ]
        ]
      }
    }
  ]
}