{
  "type": "FeatureCollection",
  "features": [
    {
      "type": "Feature",
      "properties": {
        "name": "Howrah - Kharagpur - Balasore - Bhubaneswar Corridor",
        "description": "East Coast Railway Main Line Corridor for RailSentinel SIH26028"
      },
      "geometry": {
        "type": "LineString",
        "coordinates": [
          [88.3426, 22.5830],
          [88.2831, 22.5810],
          [88.1105, 22.4700],
          [87.8480, 22.4270],
          [87.3200, 22.3390],
          [87.3400, 21.9500],
          [87.2100, 21.8000],
          [86.9300, 21.4900],
          [86.6900, 21.2800],
          [86.5100, 21.0600],
          [86.1300, 20.9500],
          [85.8900, 20.4600],
          [85.8400, 20.2700]
        ]
      }
    }
  ]
}